ONEWEB-0556             
1 55798U 23029C   26163.84250126 -.00000062  00000+0 -18357-3 0  9992
2 55798  87.9180 275.3353 0001751  74.1441 285.9886 13.20773503160578
ONEWEB-0562             
1 55799U 23029D   26163.82902594 -.00000038  00000+0 -12565-3 0  9992
2 55799  87.9181 275.3188 0002427  81.0179 279.1229 13.20770479160577
ONEWEB-0563             
1 55800U 23029E   26163.82398637 -.00000028  00000+0 -99820-4 0  9991
2 55800  87.9182 275.3503 0001726 101.3140 258.8187 13.20771708160569
ONEWEB-0564             
1 55801U 23029F   26163.81725166 -.00000027  00000+0 -97759-4 0  9990
2 55801  87.9183 275.3250 0002213  91.4956 268.6431 13.20770845160579
ONEWEB-0638             
1 55802U 23029G   26163.82601088  .00001017  00000+0  27074-2 0  9997
2 55802  87.8954 290.6212 0001897  84.3877 275.7469 13.14506567158829
ONEWEB-0639             
1 55803U 23029H   26163.86199411 -.00000018  00000+0 -76431-4 0  9999
2 55803  87.9165 305.8377 0001084 123.8636 236.2600 13.19725508158334
ONEWEB-0640             
1 55804U 23029J   26163.83551605 -.00000213  00000+0 -60894-3 0  9996
2 55804  87.8952 290.6103 0001478  80.1139 280.0158 13.14502708158847
ONEWEB-0641             
1 55805U 23029K   26163.85724672 -.00000019  00000+0 -80641-4 0  9992
2 55805  87.9173 305.8275 0001711 101.9261 258.2064 13.19724942158340
ONEWEB-0642             
1 55806U 23029L   26163.85251436 -.00000008  00000+0 -51146-4 0  9992
2 55806  87.9167 305.8406 0001383 123.8997 236.2267 13.19724635158333
ONEWEB-0643             
1 55807U 23029M   26163.80539619  .00000218  00000+0  55387-3 0  9991
2 55807  87.8951 290.6036 0001732 121.7555 238.3744 13.14503162158810
ONEWEB-0644             
1 55808U 23029N   26163.84776931 -.00000038  00000+0 -12814-3 0  9996
2 55808  87.9163 305.8430 0001629 107.9014 252.2296 13.19724287158337
ONEWEB-0645             
1 55809U 23029P   26163.79406466 -.00000009  00000+0 -54520-4 0  9993
2 55809  87.9164 305.8507 0001375  95.6533 264.4756 13.19724273158321
ONEWEB-0646             
1 55810U 23029Q   26163.81145272  .00000068  00000+0  13674-3 0  9990
2 55810  87.9163 305.8475 0001685 106.3433 253.7885 13.19725135158310
ONEWEB-0648             
1 55811U 23029R   26163.84977123 -.00000382  00000+0 -10662-2 0  9996
2 55811  87.8962 290.5679 0001021 111.2070 248.9169 13.14502116158823
ONEWEB-0649             
1 55812U 23029S   26163.83671347  .00000032  00000+0  48768-4 0  9995
2 55812  87.9162 305.8403 0001564  99.8806 260.2503 13.19724883158351
ONEWEB-0650             
1 55813U 23029T   26163.83196359 -.00000008  00000+0 -51176-4 0  9993
2 55813  87.9164 305.8436 0001439 113.0181 247.1104 13.19725044158324
ONEWEB-0652             
1 55814U 23029U   26163.83074579 -.00000182  00000+0 -52593-3 0  9999
2 55814  87.8958 290.5790 0002052  99.1443 260.9919 13.14504459158793
ONEWEB-0653             
1 55815U 23029V   26163.81489765  .00000112  00000+0  26714-3 0  9992
2 55815  87.8961 290.5801 0001875  96.9751 263.1592 13.14503123158823
ONEWEB-0654             
1 55816U 23029W   26163.81014382  .00000064  00000+0  13812-3 0  9993
2 55816  87.8957 290.5772 0002150  93.1299 267.0076 13.14503006158841
ONEWEB-0656             
1 55817U 23029X   26163.81051763  .00000009  00000+0 -86898-5 0  9994
2 55817  87.9195 275.3018 0002331  93.7570 266.3830 13.20772650160573
ONEWEB-0657             
1 55818U 23029Y   26163.82724494  .00000045  00000+0  80915-4 0  9996
2 55818  87.9165 305.8433 0002480 105.2389 254.9018 13.19724908158336
ONEWEB-0658             
1 55819U 23029Z   26163.82250455  .00000023  00000+0  25960-4 0  9993
2 55819  87.9172 305.8194 0001597 109.6697 250.4608 13.19724443158348
ONEWEB-0660             
1 55820U 23029AA  26163.78794192  .00000033  00000+0  54375-4 0  9994
2 55820  87.8968 290.5746 0001582  95.8973 264.2337 13.14503147158828
ONEWEB-0661             
1 55821U 23029AB  26163.82283558 -.00000028  00000+0 -10868-3 0  9993
2 55821  87.8952 290.6130 0001663  92.1061 268.0259 13.14502610158816
ONEWEB-0662             
1 55822U 23029AC  26163.85771887 -.00000038  00000+0 -13691-3 0  9992
2 55822  87.8946 290.6124 0001572  96.2698 263.8611 13.14502802158866
ONEWEB-0663             
1 55823U 23029AD  26163.84453389  .00000010  00000+0 -71163-5 0  9995
2 55823  87.9194 275.3668 0001517 103.8201 256.3101 13.20869488160575
ONEWEB-0664             
1 55824U 23029AE  26163.79704310  .00000027  00000+0  34284-4 0  9992
2 55824  87.9179 275.3579 0001862  86.0271 274.1075 13.20770384160565
ONEWEB-0665             
1 55825U 23029AF  26163.81966510  .00000014  00000+0  25763-5 0  9997
2 55825  87.8954 290.5945 0001538  99.0319 261.0985 13.14502767158832
ONEWEB-0666             
1 55826U 23029AG  26163.79031169  .00000020  00000+0  16330-4 0  9994
2 55826  87.9181 275.3488 0002628 107.7484 252.3936 13.20771418160571
ONEWEB-0667             
1 55827U 23029AH  26163.86102419  .00000026  00000+0  32999-4 0  9995
2 55827  87.9195 275.2921 0001791  96.5097 263.6240 13.20771838160572
