OBJECT_NAME,OBJECT_ID,EPOCH,MEAN_MOTION,ECCENTRICITY,INCLINATION,RA_OF_ASC_NODE,ARG_OF_PERICENTER,MEAN_ANOMALY,EPHEMERIS_TYPE,CLASSIFICATION_TYPE,NORAD_CAT_ID,ELEMENT_SET_NO,REV_AT_EPOCH,BSTAR,MEAN_MOTION_DOT,MEAN_MOTION_DDOT
ONEWEB-0556,2023-029C,2026-06-12T20:13:12.108864,13.20773503,.0001751,87.9180,275.3353,74.1441,285.9886,0,U,55798,999,16057,-.18357E-3,-.62E-6,0
ONEWEB-0562,2023-029D,2026-06-12T19:53:47.841216,13.20770479,.0002427,87.9181,275.3188,81.0179,279.1229,0,U,55799,999,16057,-.12565E-3,-.38E-6,0
ONEWEB-0563,2023-029E,2026-06-12T19:46:32.422368,13.20771708,.0001726,87.9182,275.3503,101.3140,258.8187,0,U,55800,999,16056,-.9982E-4,-.28E-6,0
ONEWEB-0564,2023-029F,2026-06-12T19:36:50.543424,13.20770845,.0002213,87.9183,275.3250,91.4956,268.6431,0,U,55801,999,16057,-.97759E-4,-.27E-6,0
ONEWEB-0638,2023-029G,2026-06-12T19:49:27.340032,13.14506567,.0001897,87.8954,290.6212,84.3877,275.7469,0,U,55802,999,15882,.27074E-2,.1017E-4,0
ONEWEB-0639,2023-029H,2026-06-12T20:41:16.291104,13.19725508,.0001084,87.9165,305.8377,123.8636,236.2600,0,U,55803,999,15833,-.76431E-4,-.18E-6,0
ONEWEB-0640,2023-029J,2026-06-12T20:03:08.586720,13.14502708,.0001478,87.8952,290.6103,80.1139,280.0158,0,U,55804,999,15884,-.60894E-3,-.213E-5,0
ONEWEB-0641,2023-029K,2026-06-12T20:34:26.116608,13.19724942,.0001711,87.9173,305.8275,101.9261,258.2064,0,U,55805,999,15834,-.80641E-4,-.19E-6,0
ONEWEB-0642,2023-029L,2026-06-12T20:27:37.240704,13.19724635,.0001383,87.9167,305.8406,123.8997,236.2267,0,U,55806,999,15833,-.51146E-4,-.8E-7,0
ONEWEB-0643,2023-029M,2026-06-12T19:19:46.230816,13.14503162,.0001732,87.8951,290.6036,121.7555,238.3744,0,U,55807,999,15881,.55387E-3,.218E-5,0
ONEWEB-0644,2023-029N,2026-06-12T20:20:47.268384,13.19724287,.0001629,87.9163,305.8430,107.9014,252.2296,0,U,55808,999,15833,-.12814E-3,-.38E-6,0
ONEWEB-0645,2023-029P,2026-06-12T19:03:27.186624,13.19724273,.0001375,87.9164,305.8507,95.6533,264.4756,0,U,55809,999,15832,-.5452E-4,-.9E-7,0
ONEWEB-0646,2023-029Q,2026-06-12T19:28:29.515008,13.19725135,.0001685,87.9163,305.8475,106.3433,253.7885,0,U,55810,999,15831,.13674E-3,.68E-6,0
ONEWEB-0648,2023-029R,2026-06-12T20:23:40.234272,13.14502116,.0001021,87.8962,290.5679,111.2070,248.9169,0,U,55811,999,15882,-.10662E-2,-.382E-5,0
ONEWEB-0649,2023-029S,2026-06-12T20:04:52.043808,13.19724883,.0001564,87.9162,305.8403,99.8806,260.2503,0,U,55812,999,15835,.48768E-4,.32E-6,0
ONEWEB-0650,2023-029T,2026-06-12T19:58:01.654176,13.19725044,.0001439,87.9164,305.8436,113.0181,247.1104,0,U,55813,999,15832,-.51176E-4,-.8E-7,0
ONEWEB-0652,2023-029U,2026-06-12T19:56:16.436256,13.14504459,.0002052,87.8958,290.5790,99.1443,260.9919,0,U,55814,999,15879,-.52593E-3,-.182E-5,0
ONEWEB-0653,2023-029V,2026-06-12T19:33:27.156960,13.14503123,.0001875,87.8961,290.5801,96.9751,263.1592,0,U,55815,999,15882,.26714E-3,.112E-5,0
ONEWEB-0654,2023-029W,2026-06-12T19:26:36.426048,13.14503006,.000215,87.8957,290.5772,93.1299,267.0076,0,U,55816,999,15884,.13812E-3,.64E-6,0
ONEWEB-0656,2023-029X,2026-06-12T19:27:08.723232,13.20772650,.0002331,87.9195,275.3018,93.7570,266.3830,0,U,55817,999,16057,-.86898E-5,.9E-7,0
ONEWEB-0657,2023-029Y,2026-06-12T19:51:13.962816,13.19724908,.000248,87.9165,305.8433,105.2389,254.9018,0,U,55818,999,15833,.80915E-4,.45E-6,0
ONEWEB-0658,2023-029Z,2026-06-12T19:44:24.393120,13.19724443,.0001597,87.9172,305.8194,109.6697,250.4608,0,U,55819,999,15834,.2596E-4,.23E-6,0
ONEWEB-0660,2023-029AA,2026-06-12T18:54:38.181888,13.14503147,.0001582,87.8968,290.5746,95.8973,264.2337,0,U,55820,999,15882,.54375E-4,.33E-6,0
ONEWEB-0661,2023-029AB,2026-06-12T19:44:52.994112,13.14502610,.0001663,87.8952,290.6130,92.1061,268.0259,0,U,55821,999,15881,-.10868E-3,-.28E-6,0
ONEWEB-0662,2023-029AC,2026-06-12T20:35:06.910368,13.14502802,.0001572,87.8946,290.6124,96.2698,263.8611,0,U,55822,999,15886,-.13691E-3,-.38E-6,0
ONEWEB-0663,2023-029AD,2026-06-12T20:16:07.728096,13.20869488,.0001517,87.9194,275.3668,103.8201,256.3101,0,U,55823,999,16057,-.71163E-5,.1E-6,0
ONEWEB-0664,2023-029AE,2026-06-12T19:07:44.523840,13.20770384,.0001862,87.9179,275.3579,86.0271,274.1075,0,U,55824,999,16056,.34284E-4,.27E-6,0
ONEWEB-0665,2023-029AF,2026-06-12T19:40:19.064640,13.14502767,.0001538,87.8954,290.5945,99.0319,261.0985,0,U,55825,999,15883,.25763E-5,.14E-6,0
ONEWEB-0666,2023-029AG,2026-06-12T18:58:02.930016,13.20771418,.0002628,87.9181,275.3488,107.7484,252.3936,0,U,55826,999,16057,.1633E-4,.2E-6,0
ONEWEB-0667,2023-029AH,2026-06-12T20:39:52.490016,13.20771838,.0001791,87.9195,275.2921,96.5097,263.6240,0,U,55827,999,16057,.32999E-4,.26E-6,0
